[{"OBJECT_NAME":"STARLINK-32806","OBJECT_ID":"2025-014A","EPOCH":"2026-03-09T22:34:10.643808","MEAN_MOTION":15.27609483,"ECCENTRICITY":0.00027213,"INCLINATION":43.0032,"RA_OF_ASC_NODE":153.1644,"ARG_OF_PERICENTER":274.2278,"MEAN_ANOMALY":85.8262,"EPHEMERIS_TYPE":0,"CLASSIFICATION_TYPE":"U","NORAD_CAT_ID":62735,"ELEMENT_SET_NO":999,"REV_AT_EPOCH":6329,"BSTAR":0.0010823859,"MEAN_MOTION_DOT":0.00029671,"MEAN_MOTION_DDOT":0},{"OBJECT_NAME":"COSMOS 546","OBJECT_ID":"1973-005A","EPOCH":"2026-03-09T21:40:39.247392","MEAN_MOTION":15.29707303,"ECCENTRICITY":0.00147738,"INCLINATION":50.6327,"RA_OF_ASC_NODE":289.914,"ARG_OF_PERICENTER":261.1516,"MEAN_ANOMALY":98.7778,"EPHEMERIS_TYPE":0,"CLASSIFICATION_TYPE":"U","NORAD_CAT_ID":6350,"ELEMENT_SET_NO":999,"REV_AT_EPOCH":92802,"BSTAR":9.142057e-5,"MEAN_MOTION_DOT":2.316e-5,"MEAN_MOTION_DDOT":0}]
